#dP2018 10 12  0  0  0.00000000      96 __u+U ITR00 FIT  IAC
## 2022 432000.00000000   900.00000000 58403 0.0000000000000
+   91   C01C02C03C04C05C06C07C08C09C10C11C12C13C14E01E02E03
+        E04E05E07E08E09E11E12E14E18E19E21E24E25E26E27E30G01
+        G02G03G05G06G07G08G09G10G11G12G13G14G15G16G17G18G19
+        G20G21G22G23G24G25G26G27G28G29G30G31G32J01J02J03J07
+        R01R02R03R04R05R07R08R09R10R11R13R14R15R16R17R18R19
+        R20R21R22R23R24R26  0  0  0  0  0  0  0  0  0  0  0
++         0  0  0  0  0  0  0  0  0  0  0  0  0  0  0  0  0
++         0  0  0  0  0  0  0  0  0  0  0  0  0  0  0  0  0
++         0  0  0  0  0  0  0  0  0  0  0  0  0  0  0  0  0
++         0  0  0  0  0  0  0  0  0  0  0  0  0  0  0  0  0
++         0  0  0  0  0  0  0  0  0  0  0  0  0  0  0  0  0
++         0  0  0  0  0  0  0  0  0  0  0  0  0  0  0  0  0
%c M  cc GPS ccc cccc cccc cccc cccc ccccc ccccc ccccc ccccc
%c cc cc ccc ccc cccc cccc cccc cccc ccccc ccccc ccccc ccccc
%f  0.0000000  0.000000000  0.00000000000  0.000000000000000
%f  0.0000000  0.000000000  0.00000000000  0.000000000000000
%i    0    0    0    0      0      0      0      0         0
%i    0    0    0    0      0      0      0      0         0
/*                                                          
/*   RSA / INFORMATION & ANALYSIS CENTER (IAC) OF MCC       
/*   ULTRA-RAPID DETERMINATION                              
/* PCV:IGS14_2000 OL/AL:FES2004  NONE     YN ORB:CoN CLK:CoN
*  2018 10 12 14 30  0.00000000
PC01 -32326.694948  27098.378594    162.632593   -251.216666
PC02   4380.466754  41911.544327   -832.574777    -20.385665
PC03 -14652.696707  39512.841301   -145.668760   -269.760629
PC04 -39665.834065  14387.048180     -8.031283    -80.697822
PC05  21872.494303  36031.589527   -928.957373    235.175232
PC06 -22810.339015  34617.330602   6893.651345    374.055479
PC07  -7685.926356  32764.062370  25792.210264    -90.505632
PC08 -18492.778574  17793.307918 -33462.430553    560.298787
PC09 -10505.888094  34427.747430  21884.660381    192.119684
PC10   3466.846121  39083.711275  16087.974684   -147.663486
PC11 -16995.792628  16657.670863 -14585.984583     54.316727
PC12 -26615.115927   7930.835944   3306.115046    146.554316
PC13   -328.838845  23604.054021 -34918.514800   -322.178233
PC14 -10475.033543  23916.634556  -9728.410912    586.926655
PE01  17980.010993  22534.337784  -6727.947986   -454.509665
PE02 -18005.250270 -22495.516442   6789.491913     30.911481
PE03 -10877.198340 -14405.527373 -23457.608534    -87.403514
PE04  20406.872322  -5819.256982  20638.193686   -136.191346
PE05   5091.920201 -26320.680741 -12545.991988    178.223975
PE07 -18021.241106  22796.208524  -5661.022771    -55.139244
PE08 -20259.247410   6123.405064 -20698.546583   6484.471960
PE09  17792.088437 -22945.889230   5713.449969   6650.004999
PE11  20351.333274 -12033.461257  17807.366058   5694.876776
PE12  29602.779904   -260.185489    145.749336   5255.948795
PE14   6115.231729  20066.691021 -24441.221308   6505.812784
PE18   1446.601225 -17228.048209  16665.009836   5838.217465
PE19   9381.144233  16042.853225  23039.540704    -11.474283
PE21   5624.051284  26231.692944  12525.331054   -499.129787
PE24   9534.516172 -14891.116183 -23741.899197   6445.391660
PE25  -5611.145457 -26213.202522 -12528.786754   2015.468123
PE26    401.524979  16555.298492 -24534.695197   5373.248093
PE27  -9909.065658  14295.310438  23962.546333    612.595954
PE30 -19469.642462  -5436.845628  21623.396781   5438.961913
PG01  21776.098534  14099.513351  -6560.944461    -99.523550
PG02  -3372.365681 -16910.731148  20831.109485    -27.944501
PG03  13239.617145  16758.288548  15796.046273    148.010910
PG05  -3237.194466 -26224.295113    998.361140     -1.048925
PG06  13012.932508 -10033.270138  20901.389150    350.707521
PG07  25070.022215   4982.896023  -7802.663802    108.049020
PG08   5147.474418  14655.000556 -21477.180592   -118.344865
PG09  21257.580258  -2475.519097  15697.256206    500.927227
PG10 -11904.540870  13517.428648 -19419.397762    175.218959
PG11  18989.471580  11232.492106 -15193.160325   -710.523571
PG12  -9693.628263 -21262.001767  12602.316619    300.313685
PG13   3744.967353 -17740.080752 -19512.484612    -87.226339
PG14 -16729.267359  18469.771788   9231.799863    -96.761827
PG15 -10630.834021 -11984.209055 -21415.868786   -343.287716
PG16   -745.036900  26151.754156   2819.216315      4.582947
PG17  21834.731770 -14998.797115    100.529488    -45.020322
PG18  14816.020097  16759.334189 -14912.446233     67.437094
PG19  17448.444079 -17830.900673   8995.373184   -394.228026
PG20 -15597.762379   3405.260618 -21350.446215    517.179218
PG21 -24177.954451   -908.488374 -10086.158143   -322.464182
PG22  11468.072646  22164.018416   9373.249692   -544.796105
PG23  16566.461742   5731.106379  20364.250038   -208.867428
PG24 -19206.100081 -15292.626513 -10638.726625    -56.663890
PG25 -14852.034580  -8915.787248  20018.118831   -660.657017
PG26  -5657.504265  22613.365028  12591.134364      7.174761
PG27  -5806.615934  19187.089027 -17370.789655     -4.369742
PG28  12865.183076 -10773.196069 -19981.239675    749.354458
PG29 -20744.144110    644.847342  16551.843717    358.451256
PG30  20337.128590  -3773.692007 -16735.446130     11.235607
PG31 -11250.632336  11249.324422  21357.810146     87.260776
PG32 -20707.338929  16542.873616    587.973366   -395.295036
PJ01 -18309.389538  33098.530869 -14021.687883   -314.952402
PJ02 -25391.276546  20548.517098  31316.225986      0.189459
PJ03 -34641.088303  23893.837869   2634.072550      0.258783
PJ07      0.000000      0.000000      0.000000 999999.999999
PR01  13084.079195 -15488.619143  15465.222681     33.351821
PR02   6806.670891 -24338.937337  -3617.417709    334.126935
PR03  -3373.533526 -17126.549433 -18584.050602    145.744896
PR04 -11664.778032    630.374219 -22662.791287    279.647135
PR05 -12855.605540  17139.754928 -13821.997244     12.906044
PR07   3688.116831  16698.133916  18941.743568    -49.154548
PR08  11485.413634    137.954776  22822.414063     20.961885
PR09   4651.534668  18384.741325  17115.909064     33.080516
PR10  15434.758551  20220.303125   2420.194378     33.373163
PR11  18039.670307  10320.534827 -14802.192739    -43.675956
PR13  -4537.822376 -17848.935624 -17653.813060    -15.595601
PR14 -15479.369659 -20109.658533  -2472.269569     31.907094
PR15 -18347.257981 -13852.395628  11170.277694    -17.560853
PR16 -10511.268752   4561.947189  22784.483266    103.778649
PR17 -10830.537102  -8152.688544  21623.483207    171.640310
PR18 -23383.146171   -447.872629  10134.046400     25.982952
PR19 -23454.749658   7037.807654  -7164.457477    -60.552500
PR20  -8608.106009  11076.184629 -21290.753073   -355.358066
PR21  11196.284764   7931.733734 -21497.255358     -8.475839
PR22  24290.880197   -668.262812  -7946.979230    -64.992786
PR23  21066.151940  -8941.344932  11248.988435    183.917910
PR24   7134.173867 -11256.302418  21723.713205   -172.467301
PR26  -9974.329572  11268.340646 -20595.900351     23.877343
EOF
